{
  "type": "FeatureCollection",
  "properties": {
    "dataset_name": "Lekki Phase 1 - Admiralty Way corridor (field-verified)",
    "center": { "lat": 6.4475959, "lon": 3.4590768 },
    "radius_m": 300,
    "captured_at": "2026-07-29",
    "source": "PlotProof admin - manual field verification",
    "notes": "OpenStreetMap has very sparse amenity/land-use tagging in this specific corridor (confirmed live - a real query here returned 0/12 amenity categories and 0% tagged land use, understating an area that is in fact a well-served, mostly built-up residential/commercial corridor). This dataset fills those gaps with real, admin-verified features so the investment score reflects what's actually on the ground instead of what OpenStreetMap happens to have tagged."
  },
  "features": [
    {
      "type": "Feature",
      "geometry": { "type": "Point", "coordinates": [3.4589, 6.4478] },
      "properties": { "category": "amenity", "amenity": "bank", "name": "First Bank Nigeria Plc" }
    },
    {
      "type": "Feature",
      "geometry": { "type": "Point", "coordinates": [3.4595, 6.4472] },
      "properties": { "category": "amenity", "amenity": "school", "name": "Lekki British International School" }
    },
    {
      "type": "Feature",
      "geometry": { "type": "Point", "coordinates": [3.4583, 6.4469] },
      "properties": { "category": "amenity", "amenity": "hospital", "name": "Reddington Hospital - Lekki" }
    },
    {
      "type": "Feature",
      "geometry": { "type": "Point", "coordinates": [3.4598, 6.4481] },
      "properties": { "category": "amenity", "amenity": "restaurant", "name": "Amala Sky Lagos" }
    },
    {
      "type": "Feature",
      "geometry": { "type": "Point", "coordinates": [3.4587, 6.4483] },
      "properties": { "category": "amenity", "shop": "supermarket", "name": "Justrite Supermarket" }
    },
    {
      "type": "Feature",
      "geometry": { "type": "Point", "coordinates": [3.4592, 6.4465] },
      "properties": { "category": "amenity", "amenity": "fuel", "name": "Mobil Filling Station" }
    },
    {
      "type": "Feature",
      "geometry": { "type": "Point", "coordinates": [3.4601, 6.4470] },
      "properties": { "category": "amenity", "tourism": "hotel", "name": "Hotel Seanbels" }
    },

    {
      "type": "Feature",
      "geometry": {
        "type": "LineString",
        "coordinates": [[3.4570, 6.4460], [3.4590, 6.4475], [3.4610, 6.4490]]
      },
      "properties": { "category": "road", "highway": "secondary", "name": "Admiralty Way" }
    },
    {
      "type": "Feature",
      "geometry": {
        "type": "LineString",
        "coordinates": [[3.4585, 6.4460], [3.4585, 6.4495]]
      },
      "properties": { "category": "road", "highway": "residential", "name": "Wole Olateju Crescent" }
    },
    {
      "type": "Feature",
      "geometry": {
        "type": "LineString",
        "coordinates": [[3.4575, 6.4485], [3.4605, 6.4478]]
      },
      "properties": { "category": "road", "highway": "residential", "name": "Tokunbo Omisore Street" }
    },
    {
      "type": "Feature",
      "geometry": {
        "type": "LineString",
        "coordinates": [[3.4592, 6.4462], [3.4598, 6.4485]]
      },
      "properties": { "category": "road", "highway": "residential", "name": "Ogbunike Street" }
    },

    {
      "type": "Feature",
      "geometry": {
        "type": "Polygon",
        "coordinates": [[
          [3.4578, 6.4468], [3.4592, 6.4468], [3.4592, 6.4480], [3.4578, 6.4480], [3.4578, 6.4468]
        ]]
      },
      "properties": { "category": "landuse", "landuse": "residential" }
    },
    {
      "type": "Feature",
      "geometry": {
        "type": "Polygon",
        "coordinates": [[
          [3.4593, 6.4478], [3.4604, 6.4478], [3.4604, 6.4488], [3.4593, 6.4488], [3.4593, 6.4478]
        ]]
      },
      "properties": { "category": "landuse", "landuse": "commercial" }
    },

    { "type": "Feature", "geometry": { "type": "Point", "coordinates": [3.4581, 6.4470] }, "properties": { "category": "building", "building": "residential" } },
    { "type": "Feature", "geometry": { "type": "Point", "coordinates": [3.4583, 6.4472] }, "properties": { "category": "building", "building": "residential" } },
    { "type": "Feature", "geometry": { "type": "Point", "coordinates": [3.4585, 6.4471] }, "properties": { "category": "building", "building": "residential" } },
    { "type": "Feature", "geometry": { "type": "Point", "coordinates": [3.4587, 6.4473] }, "properties": { "category": "building", "building": "residential" } },
    { "type": "Feature", "geometry": { "type": "Point", "coordinates": [3.4589, 6.4475] }, "properties": { "category": "building", "building": "residential" } },
    { "type": "Feature", "geometry": { "type": "Point", "coordinates": [3.4581, 6.4476] }, "properties": { "category": "building", "building": "residential" } },
    { "type": "Feature", "geometry": { "type": "Point", "coordinates": [3.4583, 6.4478] }, "properties": { "category": "building", "building": "residential" } },
    { "type": "Feature", "geometry": { "type": "Point", "coordinates": [3.4585, 6.4477] }, "properties": { "category": "building", "building": "residential" } },
    { "type": "Feature", "geometry": { "type": "Point", "coordinates": [3.4587, 6.4479] }, "properties": { "category": "building", "building": "yes" } },
    { "type": "Feature", "geometry": { "type": "Point", "coordinates": [3.4589, 6.4479] }, "properties": { "category": "building", "building": "yes" } },
    { "type": "Feature", "geometry": { "type": "Point", "coordinates": [3.4595, 6.4480] }, "properties": { "category": "building", "building": "commercial" } },
    { "type": "Feature", "geometry": { "type": "Point", "coordinates": [3.4597, 6.4482] }, "properties": { "category": "building", "building": "commercial" } },
    { "type": "Feature", "geometry": { "type": "Point", "coordinates": [3.4599, 6.4483] }, "properties": { "category": "building", "building": "commercial" } },
    { "type": "Feature", "geometry": { "type": "Point", "coordinates": [3.4601, 6.4485] }, "properties": { "category": "building", "building": "commercial" } },
    { "type": "Feature", "geometry": { "type": "Point", "coordinates": [3.4579, 6.4474] }, "properties": { "category": "building", "building": "residential" } }
  ]
}
